GLOBALSTAR M057         
1 25943U 99058A   25157.58688370 -.00000057  00000+0  32386-3 0  9996
2 25943  52.0007  18.2879 0002927  11.3726 348.7189 12.24820900165633
GLOBALSTAR M059         
1 25944U 99058B   25157.61719457 -.00000066  00000+0  25563-3 0  9991
2 25944  52.0006 235.7694 0000573 232.9496 281.0659 11.99978779572771
GLOBALSTAR M056         
1 25945U 99058C   25157.54364422 -.00000044  00000+0  50615-3 0  9994
2 25945  51.9954 238.2006 0001530 158.5689 215.1039 12.04780829161349
GLOBALSTAR M031         
1 25946U 99058D   25157.41431904 -.00000011  00000+0  81078-3 0  9992
2 25946  51.9941 131.5281 0001060 154.8906 342.7800 12.16035959163238
GLOBALSTAR M039         
1 25961U 99062A   25157.55481619 -.00000091  00000+0  74029-4 0  9994
2 25961  51.9856 301.1010 0002020 335.3094  24.7676 12.62327159178877
GLOBALSTAR M034         
1 25962U 99062B   25157.59746584 -.00000163  00000+0 -13105-2 0  9991
2 25962  51.9897  38.9134 0014719  22.9945 346.8287 11.79446258137147
GLOBALSTAR M029         
1 25963U 99062C   25157.62961078 -.00000074  00000+0  15121-3 0  9994
2 25963  51.9785 123.7785 0002448  89.9248  81.1557 11.99897607167854
GLOBALSTAR M061         
1 25964U 99062D   25157.49387400 -.00000078  00000+0  31821-4 0  9991
2 25964  51.9778 223.0780 0005796 300.7322  72.6925 11.76776325120213
